[
  {
    "OBJECT_NAME": "STARLINK-2454",
    "OBJECT_ID": "2021-027AA",
    "EPOCH": "2025-06-14T18:39:14.315328",
    "MEAN_MOTION": 15.06380718,
    "ECCENTRICITY": 0.0001027,
    "INCLINATION": 53.0555,
    "RA_OF_ASC_NODE": 294.3239,
    "ARG_OF_PERICENTER": 68.6016,
    "MEAN_ANOMALY": 291.5082,
    "EPHEMERIS_TYPE": 0,
    "CLASSIFICATION_TYPE": "U",
    "NORAD_CAT_ID": 48116,
    "ELEMENT_SET_NO": 999,
    "REV_AT_EPOCH": 23163,
    "BSTAR": -9.4669e-05,
    "MEAN_MOTION_DOT": -1.69e-05,
    "MEAN_MOTION_DDOT": 0
  },
  {
    "OBJECT_NAME": "STARLINK-2455",
    "OBJECT_ID": "2021-027AB",
    "EPOCH": "2025-06-14T13:11:26.629728",
    "MEAN_MOTION": 15.06371698,
    "ECCENTRICITY": 0.0001382,
    "INCLINATION": 53.054,
    "RA_OF_ASC_NODE": 275.3346,
    "ARG_OF_PERICENTER": 89.1826,
    "MEAN_ANOMALY": 270.9322,
    "EPHEMERIS_TYPE": 0,
    "CLASSIFICATION_TYPE": "U",
    "NORAD_CAT_ID": 48117,
    "ELEMENT_SET_NO": 999,
    "REV_AT_EPOCH": 23228,
    "BSTAR": -0.00075589,
    "MEAN_MOTION_DOT": -0.00011514,
    "MEAN_MOTION_DDOT": 0
  },
  {
    "OBJECT_NAME": "STARLINK-2459",
    "OBJECT_ID": "2021-027AD",
    "EPOCH": "2025-06-14T14:57:35.186688",
    "MEAN_MOTION": 15.06381931,
    "ECCENTRICITY": 9.66e-05,
    "INCLINATION": 53.0539,
    "RA_OF_ASC_NODE": 275.0083,
    "ARG_OF_PERICENTER": 77.4319,
    "MEAN_ANOMALY": 282.6778,
    "EPHEMERIS_TYPE": 0,
    "CLASSIFICATION_TYPE": "U",
    "NORAD_CAT_ID": 48119,
    "ELEMENT_SET_NO": 999,
    "REV_AT_EPOCH": 23189,
    "BSTAR": -0.00053525,
    "MEAN_MOTION_DOT": -8.241e-05,
    "MEAN_MOTION_DDOT": 0
  },
  {
    "OBJECT_NAME": "STARLINK-2460",
    "OBJECT_ID": "2021-027AE",
    "EPOCH": "2025-06-14T18:18:00.815616",
    "MEAN_MOTION": 15.06390282,
    "ECCENTRICITY": 0.0001379,
    "INCLINATION": 53.0558,
    "RA_OF_ASC_NODE": 294.3906,
    "ARG_OF_PERICENTER": 100.8615,
    "MEAN_ANOMALY": 259.2529,
    "EPHEMERIS_TYPE": 0,
    "CLASSIFICATION_TYPE": "U",
    "NORAD_CAT_ID": 48120,
    "ELEMENT_SET_NO": 999,
    "REV_AT_EPOCH": 23163,
    "BSTAR": -0.00013579,
    "MEAN_MOTION_DOT": -2.303e-05,
    "MEAN_MOTION_DDOT": 0
  },
  {
    "OBJECT_NAME": "STARLINK-2462",
    "OBJECT_ID": "2021-027AF",
    "EPOCH": "2025-06-14T14:25:47.727840",
    "MEAN_MOTION": 15.06385504,
    "ECCENTRICITY": 0.0001278,
    "INCLINATION": 53.0554,
    "RA_OF_ASC_NODE": 285.1155,
    "ARG_OF_PERICENTER": 93.5106,
    "MEAN_ANOMALY": 266.6029,
    "EPHEMERIS_TYPE": 0,
    "CLASSIFICATION_TYPE": "U",
    "NORAD_CAT_ID": 48121,
    "ELEMENT_SET_NO": 999,
    "REV_AT_EPOCH": 23175,
    "BSTAR": -0.00022883,
    "MEAN_MOTION_DOT": -3.687e-05,
    "MEAN_MOTION_DDOT": 0
  },
  {
    "OBJECT_NAME": "STARLINK-2464",
    "OBJECT_ID": "2021-027AH",
    "EPOCH": "2025-06-14T13:02:12.932736",
    "MEAN_MOTION": 15.0638323,
    "ECCENTRICITY": 0.0001362,
    "INCLINATION": 53.0548,
    "RA_OF_ASC_NODE": 275.3784,
    "ARG_OF_PERICENTER": 101.2144,
    "MEAN_ANOMALY": 258.8998,
    "EPHEMERIS_TYPE": 0,
    "CLASSIFICATION_TYPE": "U",
    "NORAD_CAT_ID": 48123,
    "ELEMENT_SET_NO": 999,
    "REV_AT_EPOCH": 23228,
    "BSTAR": -0.00023198,
    "MEAN_MOTION_DOT": -3.733e-05,
    "MEAN_MOTION_DDOT": 0
  },
  {
    "OBJECT_NAME": "STARLINK-2465",
    "OBJECT_ID": "2021-027AJ",
    "EPOCH": "2025-06-14T13:00:51.681312",
    "MEAN_MOTION": 15.06381322,
    "ECCENTRICITY": 0.0001482,
    "INCLINATION": 53.0554,
    "RA_OF_ASC_NODE": 285.3793,
    "ARG_OF_PERICENTER": 101.0701,
    "MEAN_ANOMALY": 259.0455,
    "EPHEMERIS_TYPE": 0,
    "CLASSIFICATION_TYPE": "U",
    "NORAD_CAT_ID": 48124,
    "ELEMENT_SET_NO": 999,
    "REV_AT_EPOCH": 23213,
    "BSTAR": -0.00066626,
    "MEAN_MOTION_DOT": -0.00010186,
    "MEAN_MOTION_DDOT": 0
  },
  {
    "OBJECT_NAME": "STARLINK-2466",
    "OBJECT_ID": "2021-027AK",
    "EPOCH": "2025-06-14T13:20:49.703712",
    "MEAN_MOTION": 15.06393322,
    "ECCENTRICITY": 0.0001737,
    "INCLINATION": 53.0556,
    "RA_OF_ASC_NODE": 295.5591,
    "ARG_OF_PERICENTER": 85.7678,
    "MEAN_ANOMALY": 274.3509,
    "EPHEMERIS_TYPE": 0,
    "CLASSIFICATION_TYPE": "U",
    "NORAD_CAT_ID": 48125,
    "ELEMENT_SET_NO": 999,
    "REV_AT_EPOCH": 23200,
    "BSTAR": -0.00012378,
    "MEAN_MOTION_DOT": -2.124e-05,
    "MEAN_MOTION_DDOT": 0
  },
  {
    "OBJECT_NAME": "STARLINK-2467",
    "OBJECT_ID": "2021-027AL",
    "EPOCH": "2025-06-14T13:49:58.318752",
    "MEAN_MOTION": 15.06385298,
    "ECCENTRICITY": 0.0001381,
    "INCLINATION": 53.0543,
    "RA_OF_ASC_NODE": 275.2281,
    "ARG_OF_PERICENTER": 94.7905,
    "MEAN_ANOMALY": 265.3242,
    "EPHEMERIS_TYPE": 0,
    "CLASSIFICATION_TYPE": "U",
    "NORAD_CAT_ID": 48126,
    "ELEMENT_SET_NO": 999,
    "REV_AT_EPOCH": 23188,
    "BSTAR": -0.00016268,
    "MEAN_MOTION_DOT": -2.703e-05,
    "MEAN_MOTION_DDOT": 0
  },
  {
    "OBJECT_NAME": "STARLINK-2468",
    "OBJECT_ID": "2021-027AM",
    "EPOCH": "2025-06-14T12:01:09.189120",
    "MEAN_MOTION": 15.06383013,
    "ECCENTRICITY": 0.0001412,
    "INCLINATION": 53.0557,
    "RA_OF_ASC_NODE": 295.5654,
    "ARG_OF_PERICENTER": 91.8065,
    "MEAN_ANOMALY": 268.3085,
    "EPHEMERIS_TYPE": 0,
    "CLASSIFICATION_TYPE": "U",
    "NORAD_CAT_ID": 48127,
    "ELEMENT_SET_NO": 999,
    "REV_AT_EPOCH": 23159,
    "BSTAR": -0.00064774,
    "MEAN_MOTION_DOT": -9.912e-05,
    "MEAN_MOTION_DDOT": 0
  },
  {
    "OBJECT_NAME": "STARLINK-2469",
    "OBJECT_ID": "2021-027AN",
    "EPOCH": "2025-06-14T21:06:33.042240",
    "MEAN_MOTION": 15.06417542,
    "ECCENTRICITY": 0.0001119,
    "INCLINATION": 53.0523,
    "RA_OF_ASC_NODE": 223.9515,
    "ARG_OF_PERICENTER": 94.4208,
    "MEAN_ANOMALY": 265.6908,
    "EPHEMERIS_TYPE": 0,
    "CLASSIFICATION_TYPE": "U",
    "NORAD_CAT_ID": 48128,
    "ELEMENT_SET_NO": 999,
    "REV_AT_EPOCH": 23263,
    "BSTAR": 0.00044687,
    "MEAN_MOTION_DOT": 6.384e-05,
    "MEAN_MOTION_DDOT": 0
  },
  {
    "OBJECT_NAME": "STARLINK-2471",
    "OBJECT_ID": "2021-027AP",
    "EPOCH": "2025-06-14T18:12:42.703776",
    "MEAN_MOTION": 15.06388122,
    "ECCENTRICITY": 0.0001233,
    "INCLINATION": 53.0547,
    "RA_OF_ASC_NODE": 294.4085,
    "ARG_OF_PERICENTER": 83.9112,
    "MEAN_ANOMALY": 276.2017,
    "EPHEMERIS_TYPE": 0,
    "CLASSIFICATION_TYPE": "U",
    "NORAD_CAT_ID": 48129,
    "ELEMENT_SET_NO": 999,
    "REV_AT_EPOCH": 23163,
    "BSTAR": -6.8912e-05,
    "MEAN_MOTION_DOT": -1.307e-05,
    "MEAN_MOTION_DDOT": 0
  },
  {
    "OBJECT_NAME": "STARLINK-2472",
    "OBJECT_ID": "2021-027AQ",
    "EPOCH": "2025-06-14T16:02:05.578368",
    "MEAN_MOTION": 15.06381439,
    "ECCENTRICITY": 0.0001419,
    "INCLINATION": 53.0553,
    "RA_OF_ASC_NODE": 300.364,
    "ARG_OF_PERICENTER": 96.903,
    "MEAN_ANOMALY": 263.212,
    "EPHEMERIS_TYPE": 0,
    "CLASSIFICATION_TYPE": "U",
    "NORAD_CAT_ID": 48130,
    "ELEMENT_SET_NO": 999,
    "REV_AT_EPOCH": 23154,
    "BSTAR": -0.00038496,
    "MEAN_MOTION_DOT": -6.008e-05,
    "MEAN_MOTION_DDOT": 0
  },
  {
    "OBJECT_NAME": "STARLINK-2473",
    "OBJECT_ID": "2021-027AR",
    "EPOCH": "2025-06-14T12:03:46.520064",
    "MEAN_MOTION": 15.06431066,
    "ECCENTRICITY": 0.0001536,
    "INCLINATION": 53.0549,
    "RA_OF_ASC_NODE": 275.5594,
    "ARG_OF_PERICENTER": 78.1952,
    "MEAN_ANOMALY": 281.9209,
    "EPHEMERIS_TYPE": 0,
    "CLASSIFICATION_TYPE": "U",
    "NORAD_CAT_ID": 48131,
    "ELEMENT_SET_NO": 999,
    "REV_AT_EPOCH": 23227,
    "BSTAR": 0.00047445,
    "MEAN_MOTION_DOT": 6.798e-05,
    "MEAN_MOTION_DDOT": 0
  },
  {
    "OBJECT_NAME": "STARLINK-2474",
    "OBJECT_ID": "2021-027AS",
    "EPOCH": "2025-06-14T17:56:47.476608",
    "MEAN_MOTION": 15.06387816,
    "ECCENTRICITY": 0.0001296,
    "INCLINATION": 53.055,
    "RA_OF_ASC_NODE": 294.4577,
    "ARG_OF_PERICENTER": 92.1471,
    "MEAN_ANOMALY": 267.9667,
    "EPHEMERIS_TYPE": 0,
    "CLASSIFICATION_TYPE": "U",
    "NORAD_CAT_ID": 48132,
    "ELEMENT_SET_NO": 999,
    "REV_AT_EPOCH": 23163,
    "BSTAR": -0.00010531,
    "MEAN_MOTION_DOT": -1.849e-05,
    "MEAN_MOTION_DDOT": 0
  },
  {
    "OBJECT_NAME": "STARLINK-2475",
    "OBJECT_ID": "2021-027AT",
    "EPOCH": "2025-06-14T16:15:55.870272",
    "MEAN_MOTION": 15.06388539,
    "ECCENTRICITY": 0.0001389,
    "INCLINATION": 53.0549,
    "RA_OF_ASC_NODE": 294.7723,
    "ARG_OF_PERICENTER": 87.3916,
    "MEAN_ANOMALY": 272.7232,
    "EPHEMERIS_TYPE": 0,
    "CLASSIFICATION_TYPE": "U",
    "NORAD_CAT_ID": 48133,
    "ELEMENT_SET_NO": 999,
    "REV_AT_EPOCH": 23162,
    "BSTAR": -0.00021567,
    "MEAN_MOTION_DOT": -3.491e-05,
    "MEAN_MOTION_DDOT": 0
  },
  {
    "OBJECT_NAME": "STARLINK-2476",
    "OBJECT_ID": "2021-027AU",
    "EPOCH": "2025-06-14T12:43:36.804576",
    "MEAN_MOTION": 15.06394711,
    "ECCENTRICITY": 0.0001553,
    "INCLINATION": 53.0565,
    "RA_OF_ASC_NODE": 295.4349,
    "ARG_OF_PERICENTER": 95.2178,
    "MEAN_ANOMALY": 264.8988,
    "EPHEMERIS_TYPE": 0,
    "CLASSIFICATION_TYPE": "U",
    "NORAD_CAT_ID": 48134,
    "ELEMENT_SET_NO": 999,
    "REV_AT_EPOCH": 23199,
    "BSTAR": -0.00025955,
    "MEAN_MOTION_DOT": -4.145e-05,
    "MEAN_MOTION_DDOT": 0
  },
  {
    "OBJECT_NAME": "STARLINK-2478",
    "OBJECT_ID": "2021-027AV",
    "EPOCH": "2025-06-14T15:56:43.590624",
    "MEAN_MOTION": 15.0641318,
    "ECCENTRICITY": 9.48e-05,
    "INCLINATION": 53.0555,
    "RA_OF_ASC_NODE": 299.9956,
    "ARG_OF_PERICENTER": 94.5347,
    "MEAN_ANOMALY": 265.575,
    "EPHEMERIS_TYPE": 0,
    "CLASSIFICATION_TYPE": "U",
    "NORAD_CAT_ID": 48135,
    "ELEMENT_SET_NO": 999,
    "REV_AT_EPOCH": 23154,
    "BSTAR": 0.0007356,
    "MEAN_MOTION_DOT": 0.00010696,
    "MEAN_MOTION_DDOT": 0
  }
]